COMMENT,ORIGINATOR,NORAD_CAT_ID,OBJECT_NAME,OBJECT_TYPE,CLASSIFICATION_TYPE,INTLDES,EPOCH,EPOCH_MICROSECONDS,MEAN_MOTION,ECCENTRICITY,INCLINATION,RA_OF_ASC_NODE,ARG_OF_PERICENTER,MEAN_ANOMALY,EPHEMERIS_TYPE,ELEMENT_SET_NO,REV_AT_EPOCH,BSTAR,MEAN_MOTION_DOT,MEAN_MOTION_DDOT,FILE,TLE_LINE0,TLE_LINE1,TLE_LINE2,OBJECT_ID,OBJECT_NUMBER,SEMIMAJOR_AXIS,PERIOD,APOGEE,PERIGEE,DECAYED
"GENERATED VIA SPACETRACK.ORG API","18 SPCS","56232","FENGYUN 3G","PAYLOAD","U","23055A","2024-05-14 12:33:53","215776","15.53327307","0.0010211","49.9976","324.1071","255.041","104.9427","0","999","6130","0.00073396","0.00047162","0","4317080","0 FENGYUN 3G","1 56232U 23055A   24135.52353259  .00047162  00000-0  73396-3 0  9993","2 56232  49.9976 324.1071 0010211 255.0410 104.9427 15.53327307 61307","2023-055A","56232","6785.156","92.704","413.950","400.093","0"
"GENERATED VIA SPACETRACK.ORG API","18 SPCS","56232","FENGYUN 3G","PAYLOAD","U","23055A","2024-05-14 12:33:53","215776","15.53327307","0.0010211","49.9976","324.1071","255.041","104.9427","0","999","6130","0.00073396","0.00047162","0","4317118","0 FENGYUN 3G","1 56232U 23055A   24135.52353259  .00047162  00000-0  73396-3 0  9993","2 56232  49.9976 324.1071 0010211 255.0410 104.9427 15.53327307 61307","2023-055A","56232","6785.156","92.704","413.950","400.093","0"
"GENERATED VIA SPACETRACK.ORG API","18 SPCS","56232","FENGYUN 3G","PAYLOAD","U","23055A","2024-05-14 18:44:25","27872","15.53356034","0.0010204","49.9977","322.7801","256.2467","103.7365","0","999","6134","0.00080395","0.00051789","0","4317295","0 FENGYUN 3G","1 56232U 23055A   24135.78084523  .00051789  00000-0  80395-3 0  9993","2 56232  49.9977 322.7801 0010204 256.2467 103.7365 15.53356034 61341","2023-055A","56232","6785.073","92.703","413.861","400.014","0"
"GENERATED VIA SPACETRACK.ORG API","18 SPCS","56232","FENGYUN 3G","PAYLOAD","U","23055A","2024-05-14 21:49:40","802592","15.53369744","0.0010202","49.9977","322.1166","256.8513","103.1316","0","999","6136","0.00081927","0.00052818","0","4317370","0 FENGYUN 3G","1 56232U 23055A   24135.90950003  .00052818  00000-0  81927-3 0  9998","2 56232  49.9977 322.1166 0010202 256.8513 103.1316 15.53369744 61369","2023-055A","56232","6785.033","92.702","413.820","399.976","0"
"GENERATED VIA SPACETRACK.ORG API","18 SPCS","56232","FENGYUN 3G","PAYLOAD","U","23055A","2024-05-15 05:32:49","808256","15.53400921","0.0010215","49.9977","320.4576","258.2647","101.7175","0","999","6141","0.00078214","0.00050446","0","4317765","0 FENGYUN 3G","1 56232U 23055A   24136.23113204  .00050446  00000-0  78214-3 0  9999","2 56232  49.9977 320.4576 0010215 258.2647 101.7175 15.53400921 61419","2023-055A","56232","6784.942","92.700","413.738","399.876","0"
"GENERATED VIA SPACETRACK.ORG API","18 SPCS","56232","FENGYUN 3G","PAYLOAD","U","23055A","2024-05-15 13:15:58","234176","15.53435636","0.0010222","49.9976","318.7986","259.7005","100.281","0","999","6146","0.00081844","0.00052892","0","4318088","0 FENGYUN 3G","1 56232U 23055A   24136.55275734  .00052892  00000-0  81844-3 0  9991","2 56232  49.9976 318.7986 0010222 259.7005 100.2810 15.53435636 61461","2023-055A","56232","6784.841","92.698","413.641","399.770","0"
"GENERATED VIA SPACETRACK.ORG API","18 SPCS","56232","FENGYUN 3G","PAYLOAD","U","23055A","2024-05-15 13:15:58","234176","15.53435636","0.0010222","49.9976","318.7986","259.7005","100.281","0","999","6146","0.00081844","0.00052892","0","4318101","0 FENGYUN 3G","1 56232U 23055A   24136.55275734  .00052892  00000-0  81844-3 0  9991","2 56232  49.9976 318.7986 0010222 259.7005 100.2810 15.53435636 61461","2023-055A","56232","6784.841","92.698","413.641","399.770","0"
"GENERATED VIA SPACETRACK.ORG API","18 SPCS","56232","FENGYUN 3G","PAYLOAD","U","23055A","2024-05-15 20:59:06","69984","15.53468657","0.0010219","49.9975","317.1399","261.2323","98.7487","0","999","6151","0.00082357","0.00053294","0","4318413","0 FENGYUN 3G","1 56232U 23055A   24136.87437581  .00053294  00000-0  82357-3 0  9993","2 56232  49.9975 317.1399 0010219 261.2323  98.7487 15.53468657 61514","2023-055A","56232","6784.745","92.696","413.543","399.676","0"
"GENERATED VIA SPACETRACK.ORG API","18 SPCS","56232","FENGYUN 3G","PAYLOAD","U","23055A","2024-05-15 20:59:06","69984","15.53468657","0.0010219","49.9975","317.1399","261.2323","98.7487","0","999","6151","0.00082357","0.00053294","0","4318417","0 FENGYUN 3G","1 56232U 23055A   24136.87437581  .00053294  00000-0  82357-3 0  9993","2 56232  49.9975 317.1399 0010219 261.2323  98.7487 15.53468657 61514","2023-055A","56232","6784.745","92.696","413.543","399.676","0"
"GENERATED VIA SPACETRACK.ORG API","18 SPCS","56232","FENGYUN 3G","PAYLOAD","U","23055A","2024-05-16 04:42:13","204224","15.53506126","0.0010265","49.9971","315.4818","262.8387","97.1414","0","999","6156","0.00090398","0.00058665","0","4318674","0 FENGYUN 3G","1 56232U 23055A   24137.19598616  .00058665  00000-0  90398-3 0  9997","2 56232  49.9971 315.4818 0010265 262.8387  97.1414 15.53506126 61567","2023-055A","56232","6784.636","92.694","413.465","399.536","0"
"GENERATED VIA SPACETRACK.ORG API","18 SPCS","56232","FENGYUN 3G","PAYLOAD","U","23055A","2024-05-16 12:25:19","672320","15.53552956","0.0010315","49.9968","313.8226","264.4972","95.4819","0","999","6161","0.0011807","0.00077079","0","4319076","0 FENGYUN 3G","1 56232U 23055A   24137.51758880  .00077079  00000-0  11807-2 0  9991","2 56232  49.9968 313.8226 0010315 264.4972  95.4819 15.53552956 61610","2023-055A","56232","6784.499","92.691","413.362","399.366","0"
"GENERATED VIA SPACETRACK.ORG API","18 SPCS","56232","FENGYUN 3G","PAYLOAD","U","23055A","2024-05-16 12:25:19","672320","15.53552956","0.0010315","49.9968","313.8226","264.4972","95.4819","0","999","6161","0.0011807","0.00077079","0","4319123","0 FENGYUN 3G","1 56232U 23055A   24137.51758880  .00077079  00000-0  11807-2 0  9991","2 56232  49.9968 313.8226 0010315 264.4972  95.4819 15.53552956 61610","2023-055A","56232","6784.499","92.691","413.362","399.366","0"
"GENERATED VIA SPACETRACK.ORG API","18 SPCS","56232","FENGYUN 3G","PAYLOAD","U","23055A","2024-05-16 20:08:25","310112","15.53591156","0.0010322","49.9974","312.1631","265.6002","94.3786","0","999","6166","0.0008975","0.00058422","0","4319367","0 FENGYUN 3G","1 56232U 23055A   24137.83918183  .00058422  00000-0  89750-3 0  9994","2 56232  49.9974 312.1631 0010322 265.6002  94.3786 15.53591156 61665","2023-055A","56232","6784.388","92.688","413.256","399.250","0"
"GENERATED VIA SPACETRACK.ORG API","18 SPCS","56232","FENGYUN 3G","PAYLOAD","U","23055A","2024-05-16 21:41:02","360256","15.53599849","0.0010317","49.9973","311.8313","265.7264","94.2524","0","999","6167","0.00088944","0.00057907","0","4319396","0 FENGYUN 3G","1 56232U 23055A   24137.90349954  .00057907  00000-0  88944-3 0  9997","2 56232  49.9973 311.8313 0010317 265.7264  94.2524 15.53599849 61679","2023-055A","56232","6784.363","92.688","413.227","399.228","0"
"GENERATED VIA SPACETRACK.ORG API","18 SPCS","56232","FENGYUN 3G","PAYLOAD","U","23055A","2024-05-17 03:51:30","229056","15.5363106","0.0010329","49.9972","310.5042","267.4532","92.5253","0","999","6171","0.00080266","0.00052234","0","4319630","0 FENGYUN 3G","1 56232U 23055A   24138.16076654  .00052234  00000-0  80266-3 0  9997","2 56232  49.9972 310.5042 0010329 267.4532  92.5253 15.53631060 61710","2023-055A","56232","6784.272","92.686","413.144","399.129","0"
"GENERATED VIA SPACETRACK.ORG API","18 SPCS","56232","FENGYUN 3G","PAYLOAD","U","23055A","2024-05-17 11:34:34","487040","15.53667299","0.0010382","49.9972","308.8443","269.3155","90.6623","0","999","6176","0.00077164","0.00050252","0","4319978","0 FENGYUN 3G","1 56232U 23055A   24138.48234360  .00050252  00000-0  77164-3 0  9993","2 56232  49.9972 308.8443 0010382 269.3155  90.6623 15.53667299 61764","2023-055A","56232","6784.166","92.684","413.075","398.988","0"
"GENERATED VIA SPACETRACK.ORG API","18 SPCS","56232","FENGYUN 3G","PAYLOAD","U","23055A","2024-05-17 13:07:11","184672","15.53680656","0.0010411","49.9971","308.5123","269.4938","90.4837","0","999","6177","0.00080771","0.00052666","0","4320024","0 FENGYUN 3G","1 56232U 23055A   24138.54665723  .00052666  00000-0  80771-3 0  9990","2 56232  49.9971 308.5123 0010411 269.4938  90.4837 15.53680656 61776","2023-055A","56232","6784.128","92.683","413.055","398.930","0"
"GENERATED VIA SPACETRACK.ORG API","18 SPCS","56232","FENGYUN 3G","PAYLOAD","U","23055A","2024-05-17 20:50:14","537184","15.53720612","0.0010397","49.9975","306.8528","270.2489","89.7287","0","999","6182","0.00090798","0.00059399","0","4320349","0 FENGYUN 3G","1 56232U 23055A   24138.86822381  .00059399  00000-0  90798-3 0  9990","2 56232  49.9975 306.8528 0010397 270.2489  89.7287 15.53720612 61827","2023-055A","56232","6784.011","92.681","412.930","398.823","0"
"GENERATED VIA SPACETRACK.ORG API","18 SPCS","56232","FENGYUN 3G","PAYLOAD","U","23055A","2024-05-18 04:33:17","21376","15.53769662","0.0010403","49.9973","305.1938","272.1556","87.822","0","999","6187","0.0010193","0.00066924","0","4320729","0 FENGYUN 3G","1 56232U 23055A   24139.18978034  .00066924  00000-0  10193-2 0  9995","2 56232  49.9973 305.1938 0010403 272.1556  87.8220 15.53769662 61875","2023-055A","56232","6783.868","92.678","412.791","398.676","0"
"GENERATED VIA SPACETRACK.ORG API","18 SPCS","56232","FENGYUN 3G","PAYLOAD","U","23055A","2024-05-18 12:16:18","632928","15.53818358","0.0010434","49.997","303.5338","273.887","86.0905","0","999","6192","0.00091156","0.00059854","0","4321076","0 FENGYUN 3G","1 56232U 23055A   24139.51132677  .00059854  00000-0  91156-3 0  9990","2 56232  49.9970 303.5338 0010434 273.8870  86.0905 15.53818358 61923","2023-055A","56232","6783.727","92.675","412.670","398.514","0"
